TDRS 3                  
1 19548U 88091B   26165.82170887 -.00000301  00000+0  00000+0 0  9997
2 19548  12.6037 341.0182 0038413 355.9974 173.0838  1.00273853125364
FLTSATCOM 8 (USA 46)    
1 20253U 89077A   26165.85163987 -.00000369  00000+0  00000+0 0  9997
2 20253  12.4223 351.1794 0004492  54.1490 290.0482  1.00278696260530
SKYNET 4C               
1 20776U 90079A   26162.20198485  .00000132  00000+0  00000+0 0  9995
2 20776  13.3423 349.8525 0002401  96.2300 279.5546  1.00274124130837
TDRS 5                  
1 21639U 91054B   26165.72678358  .00000081  00000+0  00000+0 0  9993
2 21639  14.0716 353.7977 0006436 274.7101  88.4604  1.00273109127692
TDRS 6                  
1 22314U 93003B   26165.39443913 -.00000298  00000+0  00000+0 0  9991
2 22314  14.1828 357.0810 0007806 177.9743 183.8349  1.00272404122383
UFO 2 (USA 95)          
1 22787U 93056A   26165.89046347  .00000122  00000+0  00000+0 0  9993
2 22787  11.8941   3.5690 0005945   8.0461 240.7903  1.00275633118526
USA 99 (MILSTAR-1 1)    
1 22988U 94009A   26165.83030777 -.00000131  00000+0  00000+0 0  9990
2 22988  17.6234  27.7308 0001109 217.7482 334.6972  0.98722565 32927
UFO 4 (USA 108)         
1 23467U 95003A   26165.79414875 -.00000025  00000+0  00000+0 0  9990
2 23467   9.6995  13.2397 0003116  64.7276 283.1835  1.00272174114921
TDRS 7                  
1 23613U 95035B   26165.65055999 -.00000239  00000+0  00000+0 0  9998
2 23613  13.3782 348.2090 0011083  77.9619 159.8846  1.00265131113228
USA 115 (MILSTAR-1 2)   
1 23712U 95060A   26165.58244845 -.00000190  00000+0  00000+0 0  9994
2 23712  14.0720   3.7685 0001528 143.5162 230.1918  1.00364609 32860
INMARSAT 3-F1           
1 23839U 96020A   26165.58137213 -.00000137  00000+0  00000+0 0  9992
2 23839  10.5959  46.6597 0003740  47.5322 285.5643  0.99978992110221
INMARSAT 3-F2           
1 24307U 96053A   26165.62512610 -.00000242  00000+0  00000+0 0  9999
2 24307   9.8515  53.9639 0006745  27.7276 198.1283  1.00003616108899
INMARSAT 3-F3           
1 24674U 96070A   26165.76895215  .00000131  00000+0  00000+0 0  9991
2 24674  10.3132  49.6776 0003410  23.1760 152.0731  0.99981262107880
AMC-3                   
1 24936U 97050A   26165.59126507  .00000066  00000+0  00000+0 0  9990
2 24936   8.1580  64.0136 0004027  26.1234 266.5637  0.99061053 52408
USA 134                 
1 25019U 97065A   26165.58833426 -.00000066  00000+0  00000+0 0  9994
2 25019  12.7811  21.7426 0003325 335.5639   5.1245  1.00269108 32928
INMARSAT 3-F5           
1 25153U 98006B   26165.19155058 -.00000291  00000+0  00000+0 0  9994
2 25153   9.6866  53.2891 0004410  26.5219 197.6510  1.00268759103860
ABS-6                   
1 25924U 99053A   26165.79146205 -.00000113  00000+0  00000+0 0  9996
2 25924   0.0285 284.4717 0003731 165.8953 256.6471  1.00275804 97816
UFO 10 (USA 146)        
1 25967U 99063A   26165.39903249 -.00000189  00000+0  00000+0 0  9992
2 25967   9.8460  27.2269 0002050  34.4628 321.7351  1.00271694 97312
ASIASTAR                
1 26107U 00016A   26165.78060189 -.00000335  00000+0  00000+0 0  9992
2 26107   9.1240  58.1796 0004406  26.0908 204.8356  1.00269826 95892
USA 149 (DSP 20)        
1 26356U 00024A   26165.79848208  .00000090  00000+0  00000+0 0  9991
2 26356  13.1688  11.8700 0001896 305.8434  67.4303  1.00273598 32899
TDRS 8                  
1 26388U 00034A   26165.76603399 -.00000197  00000+0  00000+0 0  9993
2 26388  12.6799  31.3437 0004671  17.4245 214.7083  1.00267633 95158
NSS-11                  
1 26554U 00059A   26165.79484207  .00000029  00000+0  00000+0 0  9996
2 26554   2.1205  81.4156 0002776 349.0683 294.7451  1.00270557 41266
USA 153                 
1 26575U 00065A   26165.66527088 -.00000328  00000+0  00000+0 0  9990
2 26575  11.6203  35.4433 0002999  47.1332 194.3859  1.00270043 32901
AMC-6                   
1 26580U 00067A   26165.66193939  .00000095  00000+0  00000+0 0  9992
2 26580   0.1461  83.0693 0003437  12.1794 270.9724  1.00272459 93862
USA 157 (MILSTAR-2 2)   
1 26715U 01009A   26165.73025024  .00000106  00000+0  00000+0 0  9999
2 26715  11.5401  19.7803 0039343 177.6408 178.4209  1.00273484 32913
INTELSAT 902 (IS-902)   
1 26900U 01039A   26165.53624534 -.00000281  00000+0  00000+0 0  9992
2 26900   6.1108  71.8168 0004488   8.0143 325.9476  1.00270945 90661
USA 164 (MILSTAR-2 3)   
1 27168U 02001A   26165.83030777  .00000095  00000+0  00000+0 0  9994
2 27168  11.1768  21.9225 0098967   8.3199 190.8116  1.00276577 32938
INTELSAT 904 (IS-904)   
1 27380U 02007A   26165.16112227 -.00000223  00000+0  00000+0 0  9997
2 27380   6.9124  69.2201 0006463   4.1571 215.6025  1.00271167 51733
DIRECTV 5 (TEMPO 1)     
1 27426U 02023A   26165.66687941 -.00000055  00000+0  00000+0 0  9994
2 27426   4.8714  75.3412 0003218  22.1808 295.4136  1.00271433 88090
INTELSAT 905 (IS-905)   
1 27438U 02027A   26165.59827876  .00000095  00000+0  00000+0 0  9999
2 27438   6.7471  69.8304 0003798  20.9273 250.3045  1.00272386 51331
GALAXY 3C (G-3C)        
1 27445U 02030A   26165.59863112 -.00000149  00000+0  00000+0 0  9995
2 27445   3.7249  78.0091 0001521  34.3645 271.1797  1.00271083 46464
